{"type":"FeatureCollection","features":[{"type":"Feature","properties":{"zone":"zone1","name":"화지동","count":6},"geometry":{"type":"MultiPolygon","coordinates":[[[[127.09511,36.21237],[127.09534,36.21227],[127.09503,36.21096],[127.09815,36.2098],[127.09655,36.20918],[127.0958,36.21],[127.08924,36.20621],[127.08557,36.20656],[127.08476,36.20639],[127.08191,36.20427],[127.08107,36.20404],[127.0804,36.20316],[127.08073,36.20276],[127.07991,36.20247],[127.08001,36.2034],[127.07962,36.20392],[127.08046,36.20461],[127.08136,36.20653],[127.08343,36.20799],[127.08641,36.20855],[127.08743,36.20819],[127.08861,36.20718],[127.08943,36.20711],[127.09349,36.21091],[127.09415,36.21214],[127.0948,36.21233],[127.09511,36.21237]]]]}},{"type":"Feature","properties":{"zone":"zone1","name":"반월동","count":3},"geometry":{"type":"MultiPolygon","coordinates":[[[[127.0958,36.21],[127.09707,36.20874],[127.08993,36.20445],[127.08894,36.20483],[127.0836,36.20157],[127.08317,36.20275],[127.08174,36.2028],[127.08147,36.20224],[127.08093,36.20235],[127.0808,36.20202],[127.08083,36.20254],[127.08018,36.20255],[127.08073,36.20276],[127.0804,36.20316],[127.08107,36.20404],[127.08191,36.20427],[127.08476,36.20639],[127.08943,36.20626],[127.09534,36.20975],[127.0958,36.21]]],[[[127.09745,36.20831],[127.09817,36.20792],[127.09785,36.20769],[127.09814,36.20789],[127.09749,36.20827],[127.09745,36.20831]]]]}},{"type":"Feature","properties":{"zone":"zone6","name":"대교동","count":0},"geometry":{"type":"MultiPolygon","coordinates":[[[[127.09226,36.21417],[127.09304,36.21308],[127.09326,36.21185],[127.09373,36.21122],[127.08976,36.20735],[127.08861,36.20718],[127.08743,36.20819],[127.08641,36.20855],[127.08385,36.20813],[127.08136,36.20653],[127.08003,36.20403],[127.07875,36.20426],[127.07792,36.20729],[127.07769,36.20764],[127.07686,36.20779],[127.08322,36.21141],[127.09171,36.21405],[127.09226,36.21417]]]]}},{"type":"Feature","properties":{"zone":"zone1","name":"부창동","count":1},"geometry":{"type":"MultiPolygon","coordinates":[[[[127.08696,36.19479],[127.08553,36.19457],[127.08459,36.19531],[127.08268,36.19486],[127.08219,36.19426],[127.0812,36.19434],[127.0802,36.19365],[127.0785,36.19317],[127.07524,36.19089],[127.07453,36.19088],[127.07431,36.19127],[127.07506,36.1915],[127.07519,36.19214],[127.07389,36.19289],[127.06987,36.19275],[127.06849,36.18946],[127.0666,36.19053],[127.0646,36.18815],[127.06317,36.18755],[127.06198,36.1877],[127.06288,36.18825],[127.06153,36.18962],[127.06194,36.19005],[127.06111,36.19036],[127.06074,36.19109],[127.06396,36.19489],[127.07686,36.20779],[127.07769,36.20764],[127.07792,36.20729],[127.07863,36.20443],[127.08001,36.2034],[127.07991,36.20247],[127.08083,36.20254],[127.0808,36.20202],[127.08093,36.20235],[127.08147,36.20224],[127.08174,36.2028],[127.08317,36.20275],[127.0836,36.20157],[127.08473,36.20236],[127.08559,36.20131],[127.08725,36.20085],[127.08702,36.20021],[127.08762,36.19857],[127.08764,36.19739],[127.08754,36.19661],[127.0869,36.19632],[127.08696,36.19485],[127.08696,36.19479]]]]}},{"type":"Feature","properties":{"zone":"zone1","name":"취암동","count":50},"geometry":{"type":"MultiPolygon","coordinates":[[[[127.09707,36.20874],[127.09801,36.20808],[127.09807,36.20759],[127.09627,36.20674],[127.09908,36.20589],[127.09746,36.20228],[127.10096,36.20105],[127.09994,36.19884],[127.10322,36.19785],[127.10205,36.19534],[127.10315,36.19397],[127.10379,36.19229],[127.10442,36.19226],[127.10449,36.19167],[127.10412,36.19106],[127.10495,36.18936],[127.10265,36.189],[127.10155,36.18936],[127.10078,36.1901],[127.10009,36.18969],[127.09882,36.1902],[127.09751,36.19137],[127.09144,36.1931],[127.0912,36.19292],[127.09153,36.19257],[127.09015,36.19221],[127.08871,36.19474],[127.08696,36.19479],[127.0869,36.19632],[127.08754,36.19661],[127.08764,36.19739],[127.08762,36.19857],[127.08702,36.20021],[127.08726,36.20081],[127.08559,36.20131],[127.08473,36.20236],[127.08894,36.20483],[127.08993,36.20445],[127.09707,36.20874]]]]}},{"type":"Feature","properties":{"zone":"zone3","name":"등화동","count":4},"geometry":{"type":"MultiPolygon","coordinates":[[[[127.07433,36.17821],[127.07315,36.17863],[127.0731,36.17832],[127.06982,36.17836],[127.06972,36.17934],[127.06866,36.17961],[127.06857,36.18022],[127.06885,36.18044],[127.06861,36.18055],[127.066,36.17903],[127.06593,36.17952],[127.06522,36.17971],[127.06474,36.18057],[127.06243,36.18102],[127.06221,36.18179],[127.06166,36.18199],[127.06134,36.18159],[127.0609,36.18164],[127.05658,36.18352],[127.05569,36.18369],[127.05352,36.18316],[127.05279,36.18384],[127.05183,36.18339],[127.05111,36.18339],[127.05086,36.18371],[127.05329,36.18481],[127.05506,36.18605],[127.05657,36.18745],[127.05829,36.18997],[127.05904,36.1898],[127.05862,36.18831],[127.05942,36.18739],[127.06153,36.18962],[127.06288,36.18825],[127.06198,36.1877],[127.06372,36.18765],[127.0646,36.18815],[127.0666,36.19053],[127.06849,36.18946],[127.06987,36.19275],[127.07389,36.19289],[127.0752,36.19209],[127.07498,36.19142],[127.07431,36.19127],[127.07453,36.19088],[127.07505,36.19088],[127.07425,36.19],[127.07601,36.18967],[127.07675,36.18896],[127.07848,36.18824],[127.07952,36.18596],[127.07915,36.18525],[127.07963,36.18459],[127.07919,36.1843],[127.07934,36.18261],[127.0809,36.18145],[127.08157,36.18152],[127.08176,36.18109],[127.08141,36.17982],[127.08171,36.17928],[127.0795,36.17887],[127.07935,36.17927],[127.07813,36.17898],[127.07782,36.17928],[127.07655,36.17818],[127.07515,36.17849],[127.07434,36.17826],[127.07433,36.17821]]]]}},{"type":"Feature","properties":{"zone":"zone3","name":"지산동","count":8},"geometry":{"type":"MultiPolygon","coordinates":[[[[127.11203,36.21113],[127.11346,36.21126],[127.11711,36.20778],[127.11986,36.20417],[127.12581,36.19789],[127.12372,36.1973],[127.12403,36.19681],[127.12355,36.19599],[127.12084,36.19629],[127.11949,36.19749],[127.11514,36.19555],[127.11461,36.19633],[127.11419,36.19612],[127.11472,36.19498],[127.11431,36.1942],[127.1142,36.19488],[127.11153,36.19434],[127.1096,36.1945],[127.10912,36.19468],[127.10895,36.19513],[127.10913,36.19653],[127.10679,36.19624],[127.10634,36.1965],[127.10633,36.1969],[127.10581,36.19707],[127.10281,36.19671],[127.10322,36.19785],[127.09994,36.19884],[127.10096,36.20105],[127.09746,36.20228],[127.09908,36.20589],[127.09627,36.20674],[127.09807,36.20759],[127.09817,36.20792],[127.09689,36.20894],[127.11137,36.21107],[127.11203,36.21113]]]]}},{"type":"Feature","properties":{"zone":"zone6","name":"덕지동","count":0},"geometry":{"type":"MultiPolygon","coordinates":[[[[127.09689,36.20894],[127.09655,36.20918],[127.09804,36.20996],[127.09503,36.21096],[127.09525,36.21232],[127.09436,36.21229],[127.09346,36.21151],[127.09304,36.21308],[127.09226,36.21417],[127.09646,36.21497],[127.10604,36.2148],[127.11096,36.21267],[127.112,36.21195],[127.11211,36.21139],[127.11203,36.21113],[127.09699,36.20897],[127.09689,36.20894]]]]}},{"type":"Feature","properties":{"zone":"zone2","name":"내동","count":32},"geometry":{"type":"MultiPolygon","coordinates":[[[[127.09449,36.17852],[127.0962,36.17853],[127.09642,36.18021],[127.09537,36.18486],[127.09622,36.18594],[127.09217,36.18884],[127.0919,36.18976],[127.09015,36.19221],[127.09153,36.19257],[127.09123,36.19302],[127.09289,36.1928],[127.09429,36.1921],[127.09751,36.19137],[127.09882,36.1902],[127.10009,36.18969],[127.10078,36.1901],[127.10155,36.18936],[127.10265,36.189],[127.10586,36.18953],[127.10712,36.19039],[127.10835,36.19022],[127.10981,36.19064],[127.11032,36.19021],[127.11226,36.18701],[127.11145,36.1867],[127.11026,36.18525],[127.1099,36.18209],[127.10925,36.18116],[127.11001,36.18051],[127.11004,36.17894],[127.10754,36.17596],[127.10636,36.17576],[127.10388,36.17453],[127.10269,36.17321],[127.10067,36.17171],[127.09666,36.17436],[127.0946,36.17842],[127.09449,36.17852]]]]}},{"type":"Feature","properties":{"zone":"zone1","name":"강산동","count":8},"geometry":{"type":"MultiPolygon","coordinates":[[[[127.08157,36.18152],[127.0809,36.18145],[127.07934,36.18261],[127.07919,36.1843],[127.07963,36.18459],[127.07915,36.18525],[127.07952,36.18596],[127.07848,36.18824],[127.07675,36.18896],[127.07601,36.18967],[127.07425,36.19],[127.07505,36.19088],[127.07589,36.19112],[127.0785,36.19317],[127.0802,36.19365],[127.0812,36.19434],[127.08219,36.19426],[127.08268,36.19486],[127.08459,36.19531],[127.08553,36.19457],[127.08864,36.19479],[127.08956,36.19357],[127.09048,36.1915],[127.0919,36.18976],[127.09217,36.18884],[127.09622,36.18594],[127.09537,36.18486],[127.09642,36.18021],[127.0962,36.17853],[127.09357,36.17852],[127.09141,36.17932],[127.0888,36.18099],[127.08659,36.18185],[127.08501,36.18196],[127.08165,36.18151],[127.08157,36.18152]]]]}},{"type":"Feature","properties":{"zone":"zone3","name":"관촉동","count":7},"geometry":{"type":"MultiPolygon","coordinates":[[[[127.10495,36.18936],[127.10412,36.19106],[127.10449,36.19167],[127.10442,36.19226],[127.10379,36.19229],[127.10315,36.19397],[127.10212,36.19501],[127.10275,36.19691],[127.10441,36.1967],[127.106,36.19704],[127.10679,36.19624],[127.10913,36.19653],[127.10912,36.19468],[127.11153,36.19434],[127.1142,36.19488],[127.11431,36.1942],[127.11472,36.19498],[127.11423,36.19617],[127.11461,36.19633],[127.11514,36.19555],[127.11612,36.196],[127.11674,36.19509],[127.11626,36.19487],[127.11679,36.19411],[127.11804,36.19235],[127.11853,36.19257],[127.1232,36.18588],[127.12285,36.18572],[127.12357,36.18517],[127.12264,36.18439],[127.12435,36.18304],[127.12376,36.18254],[127.12455,36.18191],[127.123,36.1809],[127.12151,36.18315],[127.11943,36.18204],[127.1185,36.18317],[127.11771,36.18315],[127.11631,36.18402],[127.11577,36.18561],[127.11604,36.18573],[127.11598,36.18611],[127.11309,36.18617],[127.10981,36.19064],[127.10835,36.19022],[127.10712,36.19039],[127.1054,36.18944],[127.10495,36.18936]]]]}},{"type":"Feature","properties":{"zone":"zone4","name":"강경읍","count":10},"geometry":{"type":"MultiPolygon","coordinates":[[[[127.03977,36.14157],[127.04006,36.13991],[127.03969,36.13827],[127.03883,36.13898],[127.03615,36.13894],[127.03493,36.13925],[127.0343,36.13872],[127.03039,36.13777],[127.03096,36.13764],[127.02978,36.13662],[127.02344,36.13665],[127.02256,36.13745],[127.0216,36.13782],[127.02119,36.13767],[127.02041,36.13824],[127.02021,36.13954],[127.01973,36.13962],[127.01945,36.14036],[127.01958,36.14109],[127.01908,36.14199],[127.01892,36.14323],[127.01813,36.14411],[127.01716,36.14664],[127.01743,36.14702],[127.01633,36.14749],[127.01593,36.1485],[127.01544,36.14876],[127.01449,36.14803],[127.01388,36.14691],[127.01188,36.14584],[127.00962,36.14624],[127.00881,36.14716],[127.00767,36.14679],[127.00713,36.14729],[127.00586,36.14721],[127.00672,36.14979],[127.00634,36.15],[127.00638,36.15094],[127.00552,36.15151],[127.00029,36.1514],[126.99988,36.15242],[127.0005,36.15316],[126.99837,36.15645],[126.99758,36.15877],[127.0008,36.16318],[127.00105,36.1651],[127.00839,36.16526],[127.01011,36.1659],[127.0106,36.16479],[127.01144,36.16525],[127.01129,36.16553],[127.01192,36.16593],[127.01238,36.1675],[127.01747,36.16751],[127.01983,36.16672],[127.02303,36.16478],[127.02484,36.16231],[127.02593,36.16007],[127.02809,36.15737],[127.03016,36.15324],[127.03212,36.15016],[127.03403,36.14841],[127.03414,36.14796],[127.03969,36.14166],[127.03977,36.14157]]]]}},{"type":"Feature","properties":{"zone":"zone5","name":"연무읍","count":7},"geometry":{"type":"MultiPolygon","coordinates":[[[[127.09038,36.0718],[127.08818,36.07403],[127.08783,36.07556],[127.08448,36.07716],[127.08226,36.07776],[127.08138,36.07942],[127.07966,36.08104],[127.07732,36.082],[127.07695,36.083],[127.07658,36.08308],[127.07696,36.0836],[127.07548,36.0849],[127.07171,36.08463],[127.07011,36.0876],[127.06736,36.08844],[127.06524,36.08983],[127.06404,36.08949],[127.0637,36.08908],[127.06273,36.08938],[127.0609,36.08904],[127.06123,36.08964],[127.0626,36.09029],[127.06258,36.09099],[127.06313,36.09157],[127.06093,36.0938],[127.06045,36.09391],[127.06055,36.09462],[127.06019,36.09487],[127.06066,36.09527],[127.06052,36.09681],[127.06123,36.09968],[127.06033,36.10053],[127.06029,36.10242],[127.06078,36.10323],[127.06036,36.10392],[127.06105,36.10548],[127.06031,36.10561],[127.06049,36.10624],[127.05992,36.10634],[127.06001,36.10664],[127.05781,36.10705],[127.05896,36.11078],[127.05839,36.11089],[127.05867,36.11183],[127.05789,36.11198],[127.05815,36.1129],[127.05696,36.11312],[127.05772,36.11494],[127.05697,36.11509],[127.05725,36.11604],[127.05849,36.11581],[127.05875,36.11674],[127.06231,36.11595],[127.06173,36.11708],[127.06106,36.11719],[127.06301,36.12522],[127.06195,36.12512],[127.06021,36.12373],[127.06077,36.12604],[127.05611,36.12678],[127.05632,36.12766],[127.0551,36.12786],[127.05564,36.13012],[127.05071,36.1309],[127.05035,36.13217],[127.04951,36.13285],[127.05012,36.13416],[127.04821,36.13428],[127.04825,36.13396],[127.04781,36.13385],[127.04625,36.13449],[127.04645,36.13515],[127.0462,36.13529],[127.04575,36.13437],[127.04476,36.13446],[127.04467,36.13473],[127.04533,36.13526],[127.04516,36.13597],[127.04581,36.13774],[127.04549,36.13795],[127.04453,36.13759],[127.04486,36.13861],[127.04553,36.13865],[127.04483,36.1396],[127.04442,36.14166],[127.04323,36.14278],[127.04428,36.14295],[127.04417,36.14323],[127.04546,36.14305],[127.04419,36.14344],[127.04428,36.14389],[127.04547,36.14369],[127.0457,36.14457],[127.04685,36.14438],[127.04697,36.14482],[127.04814,36.14462],[127.04837,36.1455],[127.04952,36.14532],[127.04972,36.14607],[127.05089,36.14587],[127.05104,36.14644],[127.0557,36.14566],[127.05553,36.14501],[127.05782,36.14439],[127.05765,36.14371],[127.05881,36.14351],[127.05865,36.14287],[127.06098,36.14247],[127.0611,36.14291],[127.06227,36.14271],[127.0625,36.1436],[127.06363,36.14341],[127.06375,36.14386],[127.06535,36.14384],[127.06569,36.14252],[127.06644,36.14176],[127.06686,36.14039],[127.06821,36.1397],[127.0676,36.13881],[127.06879,36.13863],[127.06859,36.13775],[127.07197,36.13725],[127.0737,36.13957],[127.07478,36.13963],[127.0763,36.13934],[127.07739,36.13799],[127.07885,36.13767],[127.08301,36.13895],[127.08417,36.14071],[127.08417,36.14305],[127.08468,36.14437],[127.0872,36.14578],[127.09149,36.14681],[127.09106,36.14539],[127.08987,36.14404],[127.09031,36.14277],[127.09175,36.14266],[127.09289,36.14154],[127.09614,36.14138],[127.09754,36.14082],[127.09911,36.14265],[127.10126,36.14306],[127.10177,36.14379],[127.10236,36.14363],[127.10336,36.14605],[127.10561,36.14463],[127.10661,36.14453],[127.10694,36.14864],[127.1092,36.15022],[127.11068,36.15059],[127.11053,36.15082],[127.11263,36.15085],[127.11492,36.15156],[127.1209,36.15076],[127.12272,36.14911],[127.12674,36.14801],[127.12651,36.14806],[127.12636,36.1454],[127.12764,36.14471],[127.12787,36.14374],[127.12903,36.14296],[127.13166,36.14005],[127.13196,36.1393],[127.13173,36.1383],[127.13365,36.13616],[127.13351,36.13499],[127.13406,36.13401],[127.13332,36.13282],[127.13426,36.13184],[127.13557,36.13135],[127.13671,36.13017],[127.13713,36.12919],[127.14044,36.12589],[127.14314,36.12516],[127.14461,36.12564],[127.14691,36.12206],[127.14817,36.1208],[127.15072,36.11911],[127.15025,36.11513],[127.15105,36.11459],[127.15144,36.11377],[127.15188,36.11201],[127.15174,36.1111],[127.15079,36.11052],[127.14928,36.10833],[127.14889,36.10569],[127.14844,36.10508],[127.14913,36.1039],[127.15183,36.1017],[127.15205,36.1004],[127.15275,36.0996],[127.15412,36.09683],[127.15419,36.09384],[127.15361,36.093],[127.15349,36.09156],[127.15239,36.09055],[127.1512,36.09004],[127.14578,36.09029],[127.14563,36.08995],[127.14457,36.0897],[127.14312,36.08873],[127.14237,36.08771],[127.14154,36.0875],[127.14012,36.08805],[127.13662,36.08599],[127.13591,36.08474],[127.13519,36.08419],[127.13444,36.08222],[127.13377,36.08149],[127.13395,36.07874],[127.1347,36.0761],[127.13357,36.07478],[127.13434,36.07392],[127.13394,36.07299],[127.13271,36.07392],[127.13392,36.07297],[127.13344,36.07115],[127.13395,36.07029],[127.1337,36.06937],[127.13251,36.06842],[127.13212,36.06686],[127.13106,36.06577],[127.12322,36.06423],[127.12205,36.06303],[127.12124,36.06371],[127.12088,36.06471],[127.11811,36.06711],[127.11558,36.06765],[127.11267,36.06921],[127.11057,36.07079],[127.10942,36.07214],[127.10936,36.07259],[127.10845,36.07262],[127.10751,36.072],[127.10626,36.07194],[127.10549,36.07328],[127.10358,36.07403],[127.10203,36.07578],[127.1013,36.07549],[127.10069,36.07563],[127.10059,36.07501],[127.09953,36.07498],[127.09918,36.07457],[127.09569,36.07414],[127.09537,36.07342],[127.09442,36.07326],[127.09381,36.07482],[127.09268,36.07591],[127.09226,36.07561],[127.09154,36.07305],[127.09077,36.07234],[127.09038,36.0718]]]]}},{"type":"Feature","properties":{"zone":"zone6","name":"성동면","count":1},"geometry":{"type":"MultiPolygon","coordinates":[[[[126.98365,36.20339],[126.98382,36.20416],[126.98445,36.20419],[126.98445,36.20295],[126.9851,36.20259],[126.986,36.20478],[126.98572,36.20545],[126.98447,36.20584],[126.98407,36.20671],[126.98406,36.20786],[126.98544,36.20821],[126.98604,36.20967],[126.98673,36.21023],[126.98911,36.21042],[126.99003,36.20986],[126.99109,36.20988],[126.99151,36.2103],[126.99145,36.21098],[126.98956,36.21155],[126.98975,36.21198],[126.99031,36.21233],[126.99098,36.21212],[126.99167,36.21121],[126.99246,36.21139],[126.99291,36.21194],[126.99304,36.21295],[126.99415,36.21366],[126.99484,36.21473],[127.001,36.21613],[127.00176,36.21531],[127.00426,36.21583],[127.00396,36.21492],[127.00325,36.21507],[127.0039,36.21478],[127.00444,36.21399],[127.00386,36.2135],[127.00613,36.21254],[127.00565,36.2116],[127.00585,36.21097],[127.00534,36.21019],[127.00702,36.20972],[127.00715,36.20939],[127.0073,36.20974],[127.00935,36.21036],[127.00981,36.20978],[127.01029,36.20984],[127.01034,36.21031],[127.00977,36.2109],[127.01007,36.21203],[127.00987,36.21209],[127.01065,36.21292],[127.01246,36.21164],[127.01148,36.21152],[127.01156,36.21119],[127.01457,36.21157],[127.01501,36.21266],[127.01621,36.21316],[127.01776,36.21508],[127.01899,36.21576],[127.02114,36.21817],[127.02241,36.21833],[127.02416,36.21924],[127.02515,36.22172],[127.02594,36.22283],[127.02613,36.22402],[127.02696,36.22491],[127.02668,36.22667],[127.02734,36.22722],[127.02733,36.22916],[127.02999,36.23171],[127.03057,36.23286],[127.03045,36.23428],[127.03245,36.23547],[127.03799,36.23338],[127.04058,36.23338],[127.04235,36.2329],[127.04427,36.23088],[127.04523,36.23034],[127.04727,36.22737],[127.04915,36.22708],[127.05088,36.2264],[127.05353,36.22333],[127.05641,36.22273],[127.05854,36.22085],[127.06213,36.21927],[127.06314,36.21794],[127.06289,36.21601],[127.06317,36.2154],[127.06887,36.21343],[127.06922,36.21465],[127.06999,36.21465],[127.07183,36.21557],[127.07562,36.21036],[127.0767,36.20978],[127.07686,36.20779],[127.06396,36.19489],[127.06074,36.19109],[127.06111,36.19036],[127.06194,36.19005],[127.05942,36.18739],[127.05862,36.18831],[127.05904,36.1898],[127.05829,36.18997],[127.05657,36.18745],[127.05506,36.18605],[127.05329,36.18481],[127.05086,36.18371],[127.05111,36.18339],[127.05183,36.18339],[127.05279,36.18384],[127.05352,36.18316],[127.05569,36.18369],[127.05658,36.18346],[127.05568,36.18361],[127.05328,36.18226],[127.05227,36.18341],[127.05116,36.18259],[127.04527,36.18094],[127.03415,36.17647],[127.01772,36.17142],[127.01302,36.16818],[127.01455,36.16775],[127.01747,36.16751],[127.01238,36.1675],[127.01192,36.16593],[127.01129,36.16553],[127.01144,36.16525],[127.0106,36.16479],[127.01011,36.1659],[127.00839,36.16526],[127.00105,36.1651],[127.00243,36.16592],[127.00268,36.16885],[127.00187,36.17079],[127.00122,36.17112],[126.99705,36.17722],[126.99572,36.17813],[126.99316,36.179],[126.98909,36.1826],[126.98782,36.18621],[126.98703,36.19074],[126.9865,36.19164],[126.98894,36.19281],[126.98925,36.19329],[126.98873,36.1939],[126.98772,36.19428],[126.98498,36.19421],[126.98542,36.19545],[126.9854,36.19702],[126.98405,36.19965],[126.98504,36.20072],[126.9838,36.20294],[126.98365,36.20339]]]]}},{"type":"Feature","properties":{"zone":"zone6","name":"광석면","count":1},"geometry":{"type":"MultiPolygon","coordinates":[[[[127.08015,36.27463],[127.08065,36.2744],[127.08156,36.27254],[127.08326,36.27116],[127.08494,36.27254],[127.08735,36.27259],[127.09045,36.2746],[127.09078,36.27445],[127.09179,36.27323],[127.09278,36.27303],[127.09134,36.2716],[127.09168,36.27065],[127.09134,36.27022],[127.09528,36.267],[127.09573,36.26704],[127.09685,36.27034],[127.09969,36.27027],[127.10076,36.26902],[127.10169,36.26904],[127.10131,36.26671],[127.10066,36.26599],[127.10081,36.26575],[127.1016,36.26519],[127.10438,36.26626],[127.10484,36.26455],[127.10732,36.26349],[127.10782,36.26262],[127.10731,36.26214],[127.10769,36.26173],[127.10859,36.26171],[127.11,36.25926],[127.11238,36.25811],[127.11181,36.25618],[127.1125,36.25374],[127.11183,36.2526],[127.11257,36.25172],[127.11283,36.25081],[127.11366,36.25048],[127.11399,36.24967],[127.11385,36.24923],[127.11294,36.24868],[127.11724,36.24749],[127.11853,36.24757],[127.11806,36.24842],[127.1178,36.25057],[127.11826,36.25215],[127.12166,36.2532],[127.12459,36.25262],[127.12527,36.25278],[127.12545,36.2507],[127.12661,36.24958],[127.12729,36.24968],[127.12973,36.24854],[127.13,36.24571],[127.13052,36.24452],[127.13006,36.2435],[127.1312,36.24208],[127.13218,36.24162],[127.13303,36.23986],[127.13401,36.23967],[127.13495,36.23845],[127.13431,36.2378],[127.13427,36.23594],[127.13293,36.23525],[127.13152,36.23375],[127.12963,36.233],[127.12571,36.2329],[127.12285,36.23219],[127.12012,36.23272],[127.11834,36.23256],[127.11647,36.23157],[127.11618,36.23183],[127.1098,36.22942],[127.1009,36.22691],[127.098,36.22559],[127.09534,36.22329],[127.09346,36.21937],[127.0915,36.21642],[127.09008,36.21507],[127.09048,36.21381],[127.08289,36.21127],[127.07686,36.20779],[127.0767,36.20978],[127.07562,36.21036],[127.07183,36.21557],[127.06999,36.21465],[127.06922,36.21465],[127.06887,36.21343],[127.06317,36.2154],[127.06289,36.21601],[127.06314,36.21794],[127.06213,36.21927],[127.05854,36.22085],[127.05641,36.22273],[127.05353,36.22333],[127.05088,36.2264],[127.04915,36.22708],[127.04727,36.22737],[127.04523,36.23034],[127.04427,36.23088],[127.04235,36.2329],[127.04058,36.23338],[127.03799,36.23338],[127.03245,36.23547],[127.03279,36.23632],[127.03395,36.23711],[127.03362,36.238],[127.03553,36.23885],[127.03557,36.23946],[127.03664,36.23971],[127.03701,36.23933],[127.03877,36.24027],[127.03898,36.24085],[127.03968,36.24136],[127.04025,36.24228],[127.04003,36.24286],[127.04071,36.24359],[127.03997,36.2444],[127.04049,36.24609],[127.03992,36.24631],[127.04003,36.24669],[127.04125,36.24739],[127.04262,36.2477],[127.04408,36.24891],[127.04726,36.2491],[127.04971,36.25041],[127.05087,36.25029],[127.05267,36.25129],[127.05258,36.25213],[127.05354,36.25375],[127.05541,36.2547],[127.06086,36.25578],[127.06424,36.25601],[127.06489,36.25808],[127.06709,36.26049],[127.06911,36.26376],[127.06819,36.26588],[127.06936,36.26684],[127.06919,36.26751],[127.0698,36.26802],[127.07031,36.27046],[127.07116,36.27078],[127.07186,36.27159],[127.07359,36.272],[127.07377,36.27092],[127.07498,36.27007],[127.0766,36.27041],[127.07774,36.27234],[127.07836,36.27292],[127.07939,36.27314],[127.08008,36.27457],[127.08015,36.27463]]]]}},{"type":"Feature","properties":{"zone":"zone6","name":"노성면","count":1},"geometry":{"type":"MultiPolygon","coordinates":[[[[127.10677,36.34027],[127.1076,36.33993],[127.10903,36.33742],[127.11111,36.33513],[127.1115,36.33407],[127.11285,36.33311],[127.11272,36.33242],[127.11523,36.33006],[127.11512,36.32966],[127.11593,36.32807],[127.11575,36.32674],[127.11664,36.32642],[127.11736,36.32546],[127.11757,36.32469],[127.11721,36.32305],[127.11936,36.31958],[127.12001,36.3188],[127.12087,36.31838],[127.12039,36.31702],[127.12091,36.316],[127.12042,36.31467],[127.11873,36.31432],[127.11858,36.31239],[127.11914,36.31127],[127.1202,36.3105],[127.11961,36.30896],[127.12018,36.30607],[127.11879,36.30472],[127.11867,36.30375],[127.11972,36.30215],[127.11949,36.30116],[127.12024,36.29925],[127.1237,36.29775],[127.12381,36.29553],[127.12513,36.29492],[127.1261,36.29347],[127.12637,36.29124],[127.12738,36.29022],[127.12753,36.28922],[127.13001,36.28779],[127.13075,36.28776],[127.13152,36.28728],[127.13258,36.28746],[127.13558,36.2864],[127.13608,36.28566],[127.13866,36.285],[127.13967,36.28375],[127.13926,36.2827],[127.14085,36.28164],[127.14155,36.28057],[127.14155,36.28023],[127.13894,36.27834],[127.13959,36.27779],[127.13794,36.27654],[127.13849,36.27608],[127.13804,36.27461],[127.13836,36.27319],[127.13741,36.27317],[127.13962,36.27299],[127.1407,36.27119],[127.1411,36.26904],[127.13967,36.26811],[127.13833,36.26818],[127.1375,36.26781],[127.1375,36.26718],[127.13755,36.26672],[127.13781,36.26675],[127.13769,36.2672],[127.13931,36.26576],[127.14019,36.26574],[127.14189,36.26677],[127.14226,36.26661],[127.14232,36.26424],[127.14202,36.26258],[127.14244,36.26197],[127.14216,36.26115],[127.14377,36.26104],[127.14378,36.25911],[127.14134,36.25927],[127.14176,36.26017],[127.141,36.26008],[127.14095,36.25962],[127.14019,36.25931],[127.13978,36.25858],[127.14045,36.25777],[127.13917,36.25666],[127.13662,36.2566],[127.13507,36.25585],[127.1347,36.25537],[127.13453,36.25462],[127.13526,36.25274],[127.13465,36.2522],[127.13396,36.25041],[127.13431,36.24941],[127.13672,36.24701],[127.13689,36.24603],[127.13639,36.24584],[127.13615,36.24502],[127.13701,36.24398],[127.13734,36.24421],[127.13838,36.24401],[127.13829,36.24467],[127.14036,36.24468],[127.14034,36.24177],[127.13792,36.24178],[127.13749,36.24108],[127.13625,36.24041],[127.13568,36.23904],[127.13495,36.23845],[127.13401,36.23967],[127.13303,36.23986],[127.13218,36.24162],[127.1312,36.24208],[127.13006,36.2435],[127.13052,36.24452],[127.13,36.24571],[127.12973,36.24854],[127.12729,36.24968],[127.12661,36.24958],[127.12545,36.2507],[127.12527,36.25278],[127.12459,36.25262],[127.12166,36.2532],[127.11826,36.25215],[127.1178,36.25057],[127.11806,36.24842],[127.11853,36.24757],[127.11724,36.24749],[127.11294,36.24868],[127.11385,36.24923],[127.11399,36.24967],[127.11366,36.25048],[127.11283,36.25081],[127.11257,36.25172],[127.11183,36.2526],[127.1125,36.25374],[127.11181,36.25618],[127.11238,36.25811],[127.11,36.25926],[127.10859,36.26171],[127.10769,36.26173],[127.10731,36.26214],[127.10782,36.26262],[127.10732,36.26349],[127.10484,36.26455],[127.10438,36.26626],[127.1016,36.26519],[127.10081,36.26575],[127.10066,36.26599],[127.10131,36.26671],[127.10133,36.26803],[127.10177,36.26894],[127.10076,36.26902],[127.09969,36.27027],[127.09685,36.27034],[127.09573,36.26704],[127.09485,36.26713],[127.09134,36.27022],[127.09168,36.27065],[127.09134,36.2716],[127.09278,36.27303],[127.09179,36.27323],[127.09045,36.2746],[127.08735,36.27259],[127.08468,36.27243],[127.08326,36.27116],[127.08156,36.27254],[127.08065,36.2744],[127.08015,36.27463],[127.07939,36.27314],[127.07836,36.27292],[127.07774,36.27234],[127.0766,36.27041],[127.07498,36.27007],[127.07377,36.27092],[127.07359,36.272],[127.07186,36.27159],[127.07116,36.27078],[127.07031,36.27046],[127.07009,36.27237],[127.06779,36.27284],[127.0678,36.27387],[127.06639,36.27585],[127.06587,36.27721],[127.06685,36.28362],[127.06529,36.28602],[127.0658,36.28699],[127.06693,36.28755],[127.06704,36.28885],[127.06807,36.29017],[127.06803,36.29114],[127.06665,36.29445],[127.06759,36.29601],[127.06906,36.29757],[127.06938,36.29655],[127.07003,36.29576],[127.07206,36.29492],[127.0734,36.29502],[127.07789,36.29634],[127.07837,36.2988],[127.07857,36.29867],[127.08026,36.30187],[127.08005,36.30322],[127.08071,36.30381],[127.08103,36.30441],[127.08096,36.30515],[127.08122,36.30524],[127.08087,36.30586],[127.08162,36.30648],[127.08256,36.30958],[127.08292,36.30964],[127.08339,36.31109],[127.08397,36.31173],[127.0841,36.31258],[127.08339,36.31359],[127.08334,36.31417],[127.085,36.31521],[127.08444,36.31656],[127.08595,36.31715],[127.08793,36.31711],[127.08875,36.31761],[127.08935,36.31918],[127.09014,36.31979],[127.09006,36.32061],[127.09062,36.32136],[127.09174,36.32196],[127.09249,36.32172],[127.09371,36.32337],[127.0944,36.32364],[127.09693,36.32639],[127.09782,36.32825],[127.09885,36.3287],[127.10097,36.33081],[127.10112,36.33193],[127.10191,36.33302],[127.10193,36.33368],[127.10392,36.33441],[127.10455,36.33522],[127.10427,36.33605],[127.10518,36.33663],[127.10613,36.33807],[127.10635,36.33926],[127.10677,36.34027]]]]}},{"type":"Feature","properties":{"zone":"zone6","name":"상월면","count":1},"geometry":{"type":"MultiPolygon","coordinates":[[[[127.13495,36.23845],[127.13568,36.23904],[127.13625,36.24041],[127.13749,36.24108],[127.13792,36.24178],[127.14034,36.24177],[127.14036,36.24468],[127.13829,36.24467],[127.13838,36.24401],[127.13734,36.24421],[127.13701,36.24398],[127.13615,36.24502],[127.13639,36.24584],[127.13689,36.24603],[127.13672,36.24701],[127.13431,36.24941],[127.13396,36.25041],[127.13465,36.2522],[127.13526,36.25274],[127.13453,36.25462],[127.1347,36.25537],[127.13507,36.25585],[127.13662,36.2566],[127.13917,36.25666],[127.14045,36.25777],[127.13978,36.25858],[127.14019,36.25931],[127.14095,36.25962],[127.141,36.26008],[127.14176,36.26017],[127.14134,36.25927],[127.14378,36.25911],[127.14377,36.26104],[127.14216,36.26115],[127.14244,36.26197],[127.14202,36.26258],[127.14232,36.26424],[127.14226,36.26661],[127.14189,36.26677],[127.14019,36.26574],[127.13931,36.26576],[127.13769,36.2672],[127.13781,36.26675],[127.13755,36.26672],[127.1375,36.26718],[127.1375,36.26781],[127.13833,36.26818],[127.13967,36.26811],[127.1411,36.26904],[127.1407,36.27119],[127.13962,36.27299],[127.13741,36.27317],[127.13836,36.27319],[127.13804,36.27461],[127.13849,36.27608],[127.13794,36.27654],[127.13959,36.27779],[127.13894,36.27834],[127.14158,36.28042],[127.14085,36.28164],[127.13926,36.2827],[127.13967,36.28375],[127.13866,36.285],[127.13608,36.28566],[127.13558,36.2864],[127.13258,36.28746],[127.13152,36.28728],[127.13075,36.28776],[127.13001,36.28779],[127.12753,36.28922],[127.12738,36.29022],[127.12637,36.29124],[127.1261,36.29347],[127.12513,36.29492],[127.12381,36.29553],[127.1237,36.29775],[127.12024,36.29925],[127.11949,36.30116],[127.11972,36.30215],[127.11867,36.30375],[127.11879,36.30472],[127.12018,36.30607],[127.11961,36.30896],[127.1202,36.3105],[127.11914,36.31127],[127.11858,36.31239],[127.11873,36.31432],[127.12042,36.31467],[127.12091,36.316],[127.12039,36.31702],[127.12098,36.31865],[127.12226,36.31927],[127.12364,36.31934],[127.12502,36.32044],[127.12703,36.32115],[127.12826,36.32138],[127.12978,36.32115],[127.13038,36.32],[127.1306,36.31817],[127.13479,36.31511],[127.13592,36.31279],[127.13772,36.31169],[127.13884,36.30947],[127.14055,36.30736],[127.14146,36.305],[127.14175,36.30501],[127.14309,36.30605],[127.14317,36.30688],[127.14461,36.30789],[127.14697,36.30924],[127.14749,36.30887],[127.1478,36.30903],[127.14747,36.31146],[127.14853,36.31163],[127.14925,36.31244],[127.15169,36.31211],[127.15177,36.31272],[127.15455,36.31586],[127.15616,36.31549],[127.15635,36.31605],[127.1587,36.31633],[127.15827,36.31646],[127.15857,36.3181],[127.15857,36.32285],[127.15967,36.323],[127.16022,36.32265],[127.16259,36.32278],[127.16504,36.32246],[127.16633,36.32294],[127.16751,36.32424],[127.1694,36.3247],[127.17078,36.32666],[127.17255,36.32628],[127.1745,36.32752],[127.17751,36.32762],[127.17782,36.32928],[127.1793,36.3306],[127.18244,36.33064],[127.18396,36.33174],[127.18436,36.33129],[127.18384,36.33127],[127.18423,36.33035],[127.18544,36.32988],[127.18663,36.3307],[127.18703,36.33162],[127.18837,36.33189],[127.19009,36.33308],[127.19432,36.33502],[127.19635,36.33456],[127.19836,36.33195],[127.19898,36.32939],[127.19893,36.32808],[127.1983,36.32753],[127.1986,36.32697],[127.19924,36.32681],[127.20045,36.32555],[127.2007,36.3246],[127.20258,36.32344],[127.20255,36.32086],[127.20281,36.3205],[127.20204,36.31929],[127.2021,36.31778],[127.20316,36.31533],[127.20317,36.31312],[127.20372,36.31116],[127.20377,36.30909],[127.20427,36.30675],[127.20477,36.30636],[127.2047,36.30568],[127.20521,36.30503],[127.20562,36.30163],[127.20461,36.30011],[127.20408,36.29745],[127.20231,36.29465],[127.20147,36.29422],[127.20214,36.29147],[127.20276,36.29059],[127.20293,36.28933],[127.20216,36.28732],[127.20196,36.28562],[127.20139,36.28445],[127.20075,36.28421],[127.19983,36.28279],[127.19974,36.28179],[127.19886,36.28133],[127.19808,36.27967],[127.1975,36.27922],[127.19736,36.27696],[127.19692,36.27647],[127.19462,36.27686],[127.19351,36.27534],[127.19204,36.27421],[127.18589,36.27331],[127.18228,36.27123],[127.18066,36.27227],[127.17762,36.27216],[127.17713,36.27293],[127.17459,36.27214],[127.1738,36.27234],[127.17345,36.27278],[127.1716,36.27272],[127.17063,36.27354],[127.16739,36.27363],[127.16675,36.27421],[127.16447,36.27317],[127.16333,36.272],[127.16235,36.27173],[127.16278,36.27081],[127.16462,36.26922],[127.16444,36.26847],[127.16518,36.26606],[127.16369,36.26593],[127.16261,36.26529],[127.16263,36.26435],[127.16674,36.26085],[127.16717,36.25813],[127.16767,36.25744],[127.16716,36.25684],[127.16722,36.25628],[127.16645,36.25471],[127.16675,36.25422],[127.16418,36.25185],[127.16119,36.25115],[127.16135,36.25008],[127.16091,36.24747],[127.16117,36.24652],[127.16018,36.2465],[127.15949,36.24554],[127.15933,36.2447],[127.15601,36.24416],[127.1549,36.2436],[127.15373,36.24204],[127.15203,36.24112],[127.15048,36.24089],[127.14936,36.24014],[127.14822,36.23992],[127.14748,36.24105],[127.14675,36.24139],[127.14481,36.24],[127.14341,36.24104],[127.14355,36.2407],[127.14255,36.2407],[127.1423,36.23694],[127.13711,36.23697],[127.13486,36.23525],[127.13565,36.23474],[127.13534,36.23444],[127.13464,36.23419],[127.134,36.23447],[127.13339,36.23431],[127.13313,36.23472],[127.1344,36.23613],[127.13431,36.2378],[127.13487,36.23841],[127.13495,36.23845]]]]}},{"type":"Feature","properties":{"zone":"zone6","name":"부적면","count":6},"geometry":{"type":"MultiPolygon","coordinates":[[[[127.19013,36.18245],[127.18803,36.18124],[127.18301,36.17968],[127.17846,36.17695],[127.17658,36.17626],[127.17435,36.1763],[127.17243,36.17725],[127.16913,36.17807],[127.16754,36.17815],[127.16367,36.17718],[127.16321,36.17733],[127.16289,36.17939],[127.16173,36.1809],[127.16199,36.18136],[127.15832,36.18244],[127.15643,36.18225],[127.15184,36.17966],[127.14939,36.17965],[127.14779,36.17928],[127.14199,36.17663],[127.13975,36.17842],[127.1384,36.18067],[127.13639,36.18162],[127.13545,36.18253],[127.13174,36.18418],[127.13005,36.1863],[127.12793,36.18807],[127.1274,36.18953],[127.12759,36.19218],[127.1281,36.19308],[127.12803,36.1944],[127.12642,36.19575],[127.12383,36.197],[127.12385,36.19741],[127.12581,36.19789],[127.11986,36.20417],[127.11711,36.20778],[127.11346,36.21126],[127.11203,36.21113],[127.112,36.21195],[127.11096,36.21267],[127.10604,36.2148],[127.09646,36.21497],[127.09048,36.21381],[127.09008,36.21507],[127.0915,36.21642],[127.09346,36.21937],[127.09534,36.22329],[127.098,36.22559],[127.1009,36.22691],[127.1098,36.22942],[127.11618,36.23183],[127.11647,36.23157],[127.11834,36.23256],[127.12012,36.23272],[127.12285,36.23219],[127.12571,36.2329],[127.12902,36.23284],[127.13152,36.23375],[127.13119,36.23302],[127.13555,36.23423],[127.13939,36.23412],[127.14171,36.23306],[127.1428,36.23203],[127.14408,36.23205],[127.14426,36.23095],[127.14587,36.23035],[127.14742,36.2281],[127.14821,36.22775],[127.14932,36.22778],[127.15042,36.22639],[127.15255,36.22575],[127.15381,36.22619],[127.1551,36.22604],[127.15544,36.22528],[127.16127,36.22468],[127.16453,36.22407],[127.16428,36.2235],[127.16508,36.22365],[127.16565,36.22339],[127.16586,36.22299],[127.1656,36.22199],[127.16721,36.22087],[127.16878,36.21924],[127.16836,36.21737],[127.16983,36.21732],[127.17029,36.21702],[127.17056,36.21532],[127.17151,36.21365],[127.1727,36.21241],[127.17267,36.21102],[127.17352,36.21065],[127.17485,36.20945],[127.17509,36.20749],[127.17663,36.20724],[127.17787,36.20625],[127.17808,36.20546],[127.1792,36.20426],[127.17914,36.20298],[127.1803,36.20189],[127.18124,36.2022],[127.18157,36.20096],[127.18189,36.20076],[127.18099,36.19848],[127.18201,36.19756],[127.18197,36.19699],[127.18274,36.19624],[127.18347,36.19147],[127.18246,36.18926],[127.18326,36.18853],[127.18176,36.18566],[127.18262,36.185],[127.18311,36.18373],[127.18392,36.18343],[127.18617,36.18389],[127.18937,36.18245],[127.19013,36.18245]]]]}},{"type":"Feature","properties":{"zone":"zone6","name":"연산면","count":5},"geometry":{"type":"MultiPolygon","coordinates":[[[[127.23905,36.23587],[127.23998,36.23527],[127.24007,36.23445],[127.23922,36.23291],[127.2392,36.23174],[127.23866,36.23115],[127.23848,36.23036],[127.23894,36.22954],[127.23833,36.22844],[127.23861,36.22779],[127.2379,36.22654],[127.2382,36.22613],[127.2379,36.22476],[127.23814,36.22395],[127.2377,36.22348],[127.23734,36.22105],[127.23685,36.22057],[127.23616,36.21793],[127.23544,36.21728],[127.23515,36.21614],[127.23663,36.21584],[127.23628,36.21479],[127.23703,36.21351],[127.23679,36.21303],[127.23729,36.2121],[127.23694,36.21151],[127.23698,36.20951],[127.23798,36.20807],[127.23871,36.20587],[127.24117,36.20438],[127.24225,36.20171],[127.24171,36.20073],[127.24076,36.19642],[127.24108,36.19531],[127.24191,36.19435],[127.2419,36.19254],[127.24067,36.19156],[127.24081,36.19039],[127.2399,36.18843],[127.24163,36.18585],[127.24181,36.18316],[127.24034,36.18197],[127.23912,36.17998],[127.23764,36.17914],[127.2363,36.17958],[127.23356,36.17938],[127.23035,36.18],[127.22775,36.17899],[127.2269,36.17891],[127.22647,36.17922],[127.22589,36.18058],[127.22592,36.18241],[127.22511,36.18452],[127.22522,36.18534],[127.22436,36.18592],[127.22245,36.18998],[127.2199,36.19302],[127.21853,36.19398],[127.2185,36.19459],[127.21917,36.19469],[127.21985,36.19525],[127.21892,36.19658],[127.21761,36.1965],[127.21538,36.19764],[127.21473,36.201],[127.21129,36.20246],[127.21093,36.20316],[127.21131,36.20559],[127.21087,36.20591],[127.20928,36.20486],[127.20847,36.20468],[127.20774,36.20413],[127.20759,36.20351],[127.20506,36.20259],[127.20403,36.20179],[127.20331,36.19933],[127.20323,36.19734],[127.19825,36.19607],[127.19736,36.19559],[127.19732,36.19489],[127.19543,36.19433],[127.1943,36.19361],[127.19439,36.19198],[127.19214,36.19114],[127.19097,36.18924],[127.19132,36.18753],[127.18766,36.1834],[127.18617,36.18389],[127.18392,36.18343],[127.18311,36.18373],[127.18262,36.185],[127.18173,36.18585],[127.18244,36.18654],[127.18326,36.18853],[127.18246,36.18926],[127.18347,36.19147],[127.18274,36.19624],[127.18197,36.19699],[127.18201,36.19756],[127.18099,36.19848],[127.18189,36.20076],[127.18157,36.20096],[127.18124,36.2022],[127.1803,36.20189],[127.17914,36.20298],[127.1792,36.20426],[127.17808,36.20546],[127.17787,36.20625],[127.17663,36.20724],[127.17509,36.20749],[127.17485,36.20945],[127.17352,36.21065],[127.17267,36.21102],[127.1727,36.21241],[127.17151,36.21365],[127.17056,36.21532],[127.17029,36.21702],[127.16983,36.21732],[127.16836,36.21737],[127.16878,36.21924],[127.16721,36.22087],[127.1656,36.22199],[127.16586,36.22299],[127.16565,36.22339],[127.16508,36.22365],[127.16428,36.2235],[127.16453,36.22407],[127.16127,36.22468],[127.15544,36.22528],[127.1551,36.22604],[127.15381,36.22619],[127.15255,36.22575],[127.15042,36.22639],[127.14932,36.22778],[127.14821,36.22775],[127.14742,36.2281],[127.14587,36.23035],[127.14426,36.23095],[127.14408,36.23205],[127.1428,36.23203],[127.14171,36.23306],[127.13939,36.23412],[127.13555,36.23423],[127.13119,36.23302],[127.13152,36.23375],[127.13311,36.23537],[127.13385,36.23542],[127.13313,36.23472],[127.13328,36.23436],[127.134,36.23447],[127.13464,36.23419],[127.13534,36.23444],[127.13565,36.23474],[127.13486,36.23525],[127.13711,36.23697],[127.1423,36.23694],[127.14255,36.2407],[127.14355,36.2407],[127.14341,36.24104],[127.14481,36.24],[127.14675,36.24139],[127.14748,36.24105],[127.14822,36.23992],[127.14936,36.24014],[127.15048,36.24089],[127.15203,36.24112],[127.15373,36.24204],[127.1549,36.2436],[127.15601,36.24416],[127.15933,36.2447],[127.15949,36.24554],[127.16018,36.2465],[127.16117,36.24652],[127.16091,36.24747],[127.16135,36.25008],[127.16119,36.25115],[127.16418,36.25185],[127.16675,36.25422],[127.16645,36.25471],[127.16722,36.25628],[127.16716,36.25684],[127.16767,36.25744],[127.16717,36.25813],[127.16674,36.26085],[127.16263,36.26435],[127.16261,36.26529],[127.16369,36.26593],[127.16518,36.26606],[127.16444,36.26847],[127.16462,36.26922],[127.16278,36.27081],[127.16235,36.27173],[127.16333,36.272],[127.16447,36.27317],[127.16675,36.27421],[127.16739,36.27363],[127.17063,36.27354],[127.1716,36.27272],[127.17345,36.27278],[127.1738,36.27234],[127.17459,36.27214],[127.17713,36.27293],[127.17762,36.27216],[127.18066,36.27227],[127.18228,36.27123],[127.18589,36.27331],[127.19204,36.27421],[127.19351,36.27534],[127.19462,36.27686],[127.19692,36.27647],[127.19719,36.27474],[127.1985,36.27278],[127.19874,36.27126],[127.19972,36.27032],[127.19904,36.26819],[127.1977,36.26719],[127.19806,36.26552],[127.199,36.2649],[127.19886,36.26393],[127.19822,36.26268],[127.19637,36.26129],[127.19635,36.2605],[127.20032,36.25755],[127.20158,36.25309],[127.20138,36.25223],[127.20163,36.25111],[127.20522,36.25215],[127.20619,36.25203],[127.20699,36.25241],[127.20783,36.25223],[127.20944,36.25294],[127.2085,36.25446],[127.20973,36.25529],[127.21039,36.25671],[127.21157,36.25791],[127.2119,36.25769],[127.21407,36.25835],[127.21501,36.25956],[127.21592,36.25955],[127.21715,36.26058],[127.21906,36.26092],[127.2194,36.2617],[127.22007,36.26224],[127.22125,36.2622],[127.22323,36.26011],[127.22502,36.25948],[127.22475,36.25879],[127.22678,36.25829],[127.22771,36.25741],[127.22816,36.25514],[127.22804,36.25459],[127.22771,36.25448],[127.22844,36.25448],[127.22842,36.25479],[127.22942,36.25514],[127.23019,36.25587],[127.23054,36.25567],[127.23059,36.2548],[127.2315,36.25457],[127.23635,36.25553],[127.23727,36.25479],[127.2371,36.2538],[127.23791,36.25086],[127.23771,36.24928],[127.23855,36.24757],[127.23776,36.24635],[127.23757,36.24488],[127.23997,36.24357],[127.2402,36.24305],[127.24016,36.24168],[127.23961,36.2404],[127.24022,36.23892],[127.23974,36.23785],[127.23883,36.23721],[127.239,36.23612],[127.23905,36.23587]]]]}},{"type":"Feature","properties":{"zone":"zone6","name":"벌곡면","count":1},"geometry":{"type":"MultiPolygon","coordinates":[[[[127.24019,36.18948],[127.24081,36.19039],[127.24067,36.19156],[127.2419,36.19254],[127.24191,36.19435],[127.24108,36.19531],[127.24076,36.19642],[127.24171,36.20073],[127.24225,36.20171],[127.24117,36.20438],[127.23871,36.20587],[127.23798,36.20807],[127.23698,36.20951],[127.23694,36.21151],[127.23729,36.2121],[127.23679,36.21303],[127.23703,36.21351],[127.23628,36.21479],[127.23663,36.21584],[127.23515,36.21614],[127.23544,36.21728],[127.23616,36.21793],[127.23685,36.22057],[127.23734,36.22105],[127.2377,36.22348],[127.23814,36.22395],[127.2379,36.22476],[127.2382,36.22613],[127.2379,36.22654],[127.23861,36.22779],[127.23833,36.22844],[127.23894,36.22954],[127.23848,36.23036],[127.23866,36.23115],[127.2392,36.23174],[127.23922,36.23291],[127.24007,36.23445],[127.23998,36.23527],[127.23905,36.23587],[127.24103,36.23609],[127.2424,36.23485],[127.24287,36.23367],[127.24634,36.23176],[127.24799,36.23219],[127.24944,36.23358],[127.25039,36.23357],[127.25108,36.23399],[127.25187,36.23381],[127.25323,36.23441],[127.25492,36.23456],[127.25787,36.23427],[127.25866,36.23514],[127.25972,36.23559],[127.2601,36.23528],[127.26385,36.23776],[127.2638,36.23963],[127.2665,36.24251],[127.26863,36.24286],[127.27018,36.24355],[127.27138,36.24357],[127.27272,36.24263],[127.27383,36.24399],[127.27348,36.24522],[127.27457,36.24558],[127.2782,36.24556],[127.27853,36.2453],[127.27903,36.24579],[127.28023,36.24527],[127.28134,36.24559],[127.28027,36.24433],[127.28069,36.24315],[127.28242,36.24193],[127.2818,36.24141],[127.28209,36.23983],[127.28312,36.2388],[127.28296,36.23745],[127.28329,36.23687],[127.28177,36.23589],[127.28294,36.23578],[127.28311,36.23532],[127.2853,36.23489],[127.28606,36.23445],[127.28731,36.23469],[127.28818,36.23285],[127.28875,36.23265],[127.28927,36.23148],[127.2899,36.23086],[127.2925,36.22952],[127.29312,36.22816],[127.29278,36.22742],[127.29161,36.22662],[127.29306,36.22542],[127.29358,36.22312],[127.2946,36.22298],[127.29825,36.22131],[127.3011,36.22136],[127.30255,36.22188],[127.3037,36.22324],[127.30339,36.22548],[127.30278,36.22693],[127.30331,36.22816],[127.30348,36.22976],[127.30424,36.22966],[127.30379,36.22916],[127.30484,36.22866],[127.3064,36.2261],[127.30704,36.22633],[127.30744,36.22554],[127.30953,36.22463],[127.3114,36.22313],[127.31273,36.22299],[127.31332,36.22247],[127.31442,36.22245],[127.31431,36.22206],[127.31566,36.22091],[127.31813,36.21594],[127.31959,36.21548],[127.32006,36.21466],[127.32103,36.21419],[127.32152,36.21356],[127.32135,36.21287],[127.32045,36.21195],[127.32103,36.2106],[127.32075,36.20887],[127.32178,36.20792],[127.32192,36.20711],[127.32268,36.20639],[127.32316,36.20348],[127.32378,36.20312],[127.32814,36.2042],[127.32941,36.20305],[127.32976,36.20196],[127.33088,36.20148],[127.33199,36.20158],[127.33351,36.2007],[127.33358,36.19988],[127.33178,36.19876],[127.33209,36.19621],[127.33091,36.19576],[127.33074,36.19476],[127.32986,36.19421],[127.33029,36.19368],[127.33165,36.19303],[127.33163,36.19125],[127.33106,36.19023],[127.33153,36.18986],[127.33151,36.18886],[127.33194,36.18802],[127.33191,36.18471],[127.33167,36.18418],[127.33061,36.18367],[127.32942,36.18233],[127.32898,36.17954],[127.32838,36.17813],[127.32651,36.17704],[127.3263,36.17658],[127.32719,36.17575],[127.327,36.17526],[127.32461,36.17301],[127.32035,36.17108],[127.32023,36.17062],[127.32089,36.16947],[127.32176,36.16894],[127.32155,36.16684],[127.32076,36.16597],[127.32118,36.16466],[127.31906,36.16426],[127.3192,36.16266],[127.31803,36.16195],[127.31905,36.16127],[127.31855,36.16052],[127.31873,36.16069],[127.31933,36.1602],[127.31989,36.1587],[127.31985,36.15623],[127.3184,36.15408],[127.31875,36.15336],[127.32047,36.15215],[127.32207,36.14917],[127.32314,36.14585],[127.32285,36.14448],[127.32306,36.14348],[127.3225,36.1426],[127.32245,36.1405],[127.32197,36.13972],[127.32227,36.13915],[127.32185,36.13877],[127.32293,36.13726],[127.32309,36.13598],[127.32318,36.13395],[127.32281,36.13363],[127.32236,36.1317],[127.3228,36.13063],[127.32291,36.12918],[127.32248,36.1276],[127.32278,36.12696],[127.32205,36.12585],[127.32102,36.12555],[127.32072,36.12499],[127.31939,36.12423],[127.31962,36.1235],[127.31916,36.12277],[127.31855,36.11973],[127.31532,36.1191],[127.31266,36.12013],[127.31092,36.12044],[127.30908,36.1217],[127.30921,36.12268],[127.30883,36.12364],[127.3054,36.1258],[127.30432,36.12498],[127.30169,36.1252],[127.30041,36.12656],[127.30088,36.12706],[127.29891,36.13047],[127.29939,36.13178],[127.29843,36.13279],[127.29843,36.13445],[127.29715,36.13558],[127.2957,36.13585],[127.29395,36.13711],[127.29194,36.13726],[127.29028,36.14205],[127.29056,36.14253],[127.28957,36.1434],[127.28928,36.14466],[127.28605,36.1443],[127.28491,36.14365],[127.28327,36.14337],[127.28178,36.14267],[127.28088,36.14169],[127.27932,36.14215],[127.27803,36.14303],[127.2766,36.14562],[127.27532,36.145],[127.27426,36.14605],[127.27381,36.14746],[127.2721,36.14892],[127.27452,36.15081],[127.27433,36.15192],[127.27269,36.15495],[127.2739,36.15577],[127.27457,36.15714],[127.27601,36.15836],[127.27461,36.15958],[127.27269,36.15996],[127.2726,36.16067],[127.27185,36.16135],[127.27145,36.16223],[127.27065,36.16252],[127.26901,36.16557],[127.26586,36.16663],[127.26514,36.16721],[127.26415,36.16728],[127.26237,36.16914],[127.26146,36.16938],[127.26017,36.17064],[127.25773,36.17148],[127.25641,36.17159],[127.25593,36.17257],[127.25631,36.1737],[127.25482,36.17461],[127.25401,36.17433],[127.2537,36.17585],[127.25251,36.1776],[127.25269,36.1782],[127.25346,36.17884],[127.25258,36.1798],[127.2525,36.18022],[127.25295,36.18099],[127.25204,36.18231],[127.25182,36.18344],[127.25214,36.18666],[127.25169,36.18774],[127.2497,36.18774],[127.24693,36.18921],[127.24556,36.1889],[127.24125,36.18894],[127.24019,36.18948]]]]}},{"type":"Feature","properties":{"zone":"zone6","name":"양촌면","count":4},"geometry":{"type":"MultiPolygon","coordinates":[[[[127.17868,36.09423],[127.17766,36.09519],[127.17543,36.09616],[127.1747,36.09678],[127.17459,36.09816],[127.17497,36.09864],[127.17421,36.10162],[127.17617,36.10321],[127.17695,36.10629],[127.17831,36.10761],[127.17802,36.10834],[127.18026,36.10921],[127.18039,36.11029],[127.18083,36.11068],[127.1821,36.1107],[127.18317,36.1098],[127.18533,36.1112],[127.18585,36.11106],[127.18659,36.11178],[127.18718,36.11179],[127.18814,36.11305],[127.19155,36.11263],[127.19195,36.1138],[127.19414,36.11544],[127.19615,36.11538],[127.19756,36.11596],[127.20009,36.11767],[127.20114,36.11678],[127.20176,36.11917],[127.20251,36.12014],[127.20187,36.12051],[127.2006,36.12026],[127.1995,36.11932],[127.19748,36.12052],[127.19639,36.1237],[127.19843,36.12485],[127.19705,36.12571],[127.19697,36.12703],[127.19594,36.12734],[127.1947,36.12844],[127.19332,36.12893],[127.19244,36.13045],[127.19176,36.13102],[127.19241,36.13169],[127.1908,36.13234],[127.19152,36.13281],[127.19214,36.13415],[127.19044,36.13583],[127.18999,36.13656],[127.19005,36.13705],[127.19036,36.13782],[127.19106,36.13838],[127.19099,36.13879],[127.19178,36.13933],[127.19221,36.14064],[127.19262,36.14051],[127.19395,36.14098],[127.19427,36.14166],[127.19521,36.14162],[127.19569,36.14228],[127.1962,36.14223],[127.1965,36.14272],[127.1975,36.14305],[127.19746,36.14378],[127.19945,36.14562],[127.19957,36.14776],[127.20032,36.14813],[127.20077,36.14878],[127.20332,36.14791],[127.20639,36.14828],[127.20846,36.14929],[127.20634,36.14997],[127.20583,36.15056],[127.20228,36.1572],[127.19991,36.15805],[127.19917,36.15869],[127.19895,36.16282],[127.19794,36.16442],[127.19746,36.16432],[127.19911,36.16639],[127.20086,36.1671],[127.20138,36.16802],[127.20288,36.17143],[127.2022,36.17288],[127.19895,36.17713],[127.19638,36.18115],[127.19534,36.18141],[127.19349,36.18096],[127.19013,36.18245],[127.18879,36.18263],[127.18766,36.1834],[127.19132,36.18753],[127.19097,36.18924],[127.19214,36.19114],[127.19439,36.19198],[127.1943,36.19361],[127.19543,36.19433],[127.19732,36.19489],[127.19736,36.19559],[127.19825,36.19607],[127.20323,36.19734],[127.20331,36.19933],[127.20403,36.20179],[127.20506,36.20259],[127.20759,36.20351],[127.20774,36.20413],[127.20928,36.20486],[127.21048,36.20585],[127.21131,36.20559],[127.21093,36.20316],[127.21129,36.20246],[127.21473,36.201],[127.21538,36.19764],[127.21761,36.1965],[127.21892,36.19658],[127.21985,36.19525],[127.21917,36.19469],[127.2185,36.19459],[127.21853,36.19398],[127.2199,36.19302],[127.22245,36.18998],[127.22436,36.18592],[127.22522,36.18534],[127.22511,36.18452],[127.22592,36.18241],[127.22589,36.18058],[127.22647,36.17922],[127.2269,36.17891],[127.23035,36.18],[127.23356,36.17938],[127.2363,36.17958],[127.23764,36.17914],[127.23912,36.17998],[127.24034,36.18197],[127.24181,36.18316],[127.24163,36.18585],[127.2399,36.18843],[127.24019,36.18948],[127.24236,36.18875],[127.2437,36.1891],[127.24556,36.1889],[127.24693,36.18921],[127.2497,36.18774],[127.25169,36.18774],[127.25214,36.18666],[127.25182,36.18344],[127.25204,36.18231],[127.25295,36.18099],[127.2525,36.18022],[127.25258,36.1798],[127.25346,36.17884],[127.25269,36.1782],[127.25251,36.1776],[127.2537,36.17585],[127.25401,36.17433],[127.25482,36.17461],[127.25631,36.1737],[127.25593,36.17257],[127.25641,36.17159],[127.25773,36.17148],[127.26017,36.17064],[127.26146,36.16938],[127.26237,36.16914],[127.26415,36.16728],[127.26514,36.16721],[127.26586,36.16663],[127.26901,36.16557],[127.27065,36.16252],[127.27145,36.16223],[127.27185,36.16135],[127.2726,36.16067],[127.27269,36.15996],[127.27461,36.15958],[127.27601,36.15836],[127.27457,36.15714],[127.2739,36.15577],[127.27269,36.15495],[127.27433,36.15192],[127.27452,36.15081],[127.2721,36.14892],[127.27381,36.14746],[127.27426,36.14605],[127.27532,36.145],[127.2766,36.14562],[127.27803,36.14303],[127.27932,36.14215],[127.28088,36.14169],[127.28178,36.14267],[127.28327,36.14337],[127.28491,36.14365],[127.28605,36.1443],[127.28928,36.14466],[127.28957,36.1434],[127.29056,36.14253],[127.29028,36.14205],[127.29194,36.13726],[127.29395,36.13711],[127.2957,36.13585],[127.29715,36.13558],[127.29843,36.13445],[127.29843,36.13279],[127.29939,36.13178],[127.29891,36.13047],[127.30088,36.12706],[127.30041,36.12656],[127.30169,36.1252],[127.30032,36.12456],[127.29849,36.12266],[127.29799,36.12315],[127.29707,36.12273],[127.29656,36.12],[127.29702,36.11887],[127.29599,36.11803],[127.29485,36.1178],[127.29471,36.11498],[127.29394,36.11307],[127.29242,36.11225],[127.29068,36.112],[127.28934,36.11281],[127.28528,36.11216],[127.28308,36.11115],[127.28093,36.1096],[127.27885,36.10955],[127.27624,36.10802],[127.27452,36.10742],[127.2734,36.10728],[127.27225,36.10771],[127.27112,36.1075],[127.26914,36.10793],[127.26762,36.10892],[127.26725,36.10831],[127.26431,36.10893],[127.26131,36.11078],[127.25958,36.11306],[127.25902,36.11493],[127.2581,36.11526],[127.2572,36.11348],[127.25645,36.11287],[127.2557,36.11325],[127.25544,36.11288],[127.25389,36.11251],[127.25213,36.11317],[127.25151,36.11289],[127.25156,36.11155],[127.25022,36.10927],[127.25035,36.10737],[127.24966,36.1073],[127.2485,36.10583],[127.24619,36.10479],[127.24559,36.10097],[127.24569,36.10025],[127.24645,36.09959],[127.24656,36.09766],[127.24604,36.09715],[127.24605,36.09641],[127.24684,36.09599],[127.24658,36.09485],[127.24761,36.09367],[127.24866,36.09342],[127.25107,36.09175],[127.25226,36.09067],[127.25259,36.08993],[127.25369,36.08921],[127.25472,36.08744],[127.25373,36.08666],[127.25265,36.08486],[127.25029,36.08424],[127.2487,36.08307],[127.24603,36.08346],[127.24269,36.08499],[127.24171,36.08595],[127.24165,36.08653],[127.23931,36.08815],[127.23802,36.09025],[127.23724,36.091],[127.23609,36.09136],[127.23557,36.0923],[127.23578,36.09292],[127.23519,36.094],[127.23407,36.09494],[127.23228,36.09559],[127.2318,36.0966],[127.22592,36.09914],[127.22341,36.09867],[127.22266,36.09811],[127.22203,36.09692],[127.21953,36.09671],[127.21837,36.09751],[127.21633,36.09739],[127.21388,36.09794],[127.21202,36.10065],[127.21029,36.10045],[127.20964,36.10073],[127.20883,36.10023],[127.20591,36.10059],[127.20499,36.10029],[127.20485,36.09868],[127.20378,36.0978],[127.20452,36.09646],[127.20381,36.09365],[127.20177,36.09271],[127.2008,36.09162],[127.20073,36.08987],[127.20223,36.08846],[127.19804,36.08579],[127.19607,36.08626],[127.1941,36.08584],[127.19297,36.08709],[127.19065,36.08777],[127.19031,36.08915],[127.18911,36.09045],[127.18781,36.09104],[127.18691,36.09232],[127.18545,36.09284],[127.1836,36.09432],[127.18244,36.09469],[127.18212,36.09441],[127.1801,36.09462],[127.1794,36.09423],[127.17868,36.09423]]]]}},{"type":"Feature","properties":{"zone":"zone6","name":"가야곡면","count":4},"geometry":{"type":"MultiPolygon","coordinates":[[[[127.13648,36.13034],[127.13979,36.13021],[127.14119,36.13169],[127.14043,36.13585],[127.14182,36.13728],[127.1435,36.13774],[127.1444,36.1384],[127.1447,36.13947],[127.143,36.14158],[127.14578,36.14457],[127.14646,36.14606],[127.14491,36.14715],[127.14338,36.14731],[127.14242,36.14854],[127.14235,36.14968],[127.14103,36.15111],[127.14017,36.15105],[127.13945,36.15172],[127.13786,36.15077],[127.13533,36.15165],[127.13375,36.15129],[127.13321,36.15189],[127.13327,36.15304],[127.13405,36.15333],[127.13452,36.15427],[127.13409,36.15473],[127.13391,36.15603],[127.13428,36.15768],[127.13362,36.15815],[127.13363,36.15991],[127.13295,36.16127],[127.13365,36.16318],[127.13285,36.16439],[127.13268,36.16544],[127.13302,36.16601],[127.13232,36.16671],[127.13231,36.16765],[127.13146,36.16851],[127.13117,36.16945],[127.13256,36.17013],[127.13328,36.17102],[127.13419,36.17061],[127.13428,36.16971],[127.13617,36.16702],[127.13831,36.16553],[127.13973,36.16958],[127.14155,36.17124],[127.14232,36.17267],[127.14269,36.17449],[127.14145,36.17598],[127.14338,36.17728],[127.14773,36.17926],[127.14939,36.17965],[127.15184,36.17966],[127.15688,36.18238],[127.15925,36.18229],[127.16199,36.18136],[127.16173,36.1809],[127.16289,36.17939],[127.16321,36.17733],[127.16367,36.17718],[127.16754,36.17815],[127.16913,36.17807],[127.1711,36.17769],[127.17516,36.17618],[127.17786,36.17669],[127.18301,36.17968],[127.18803,36.18124],[127.19013,36.18245],[127.19349,36.18096],[127.19558,36.18141],[127.19675,36.18078],[127.19895,36.17713],[127.20289,36.17162],[127.20251,36.17027],[127.20086,36.1671],[127.19911,36.16639],[127.19746,36.16445],[127.19794,36.16442],[127.19895,36.16282],[127.19908,36.15887],[127.19969,36.15817],[127.20228,36.1572],[127.20583,36.15056],[127.20634,36.14997],[127.20846,36.14929],[127.20639,36.14828],[127.20332,36.14791],[127.20077,36.14878],[127.20032,36.14813],[127.19957,36.14776],[127.19945,36.14562],[127.19746,36.14378],[127.1975,36.14305],[127.1965,36.14272],[127.1962,36.14223],[127.19569,36.14228],[127.19521,36.14162],[127.19427,36.14166],[127.19395,36.14098],[127.19262,36.14051],[127.19221,36.14064],[127.19178,36.13933],[127.19099,36.13879],[127.19106,36.13838],[127.19036,36.13782],[127.18999,36.13656],[127.19214,36.13415],[127.19152,36.13281],[127.1908,36.13234],[127.19241,36.13169],[127.19176,36.13102],[127.19244,36.13045],[127.19332,36.12893],[127.1947,36.12844],[127.19594,36.12734],[127.19697,36.12703],[127.19705,36.12571],[127.19843,36.12485],[127.19639,36.1237],[127.19748,36.12052],[127.1995,36.11932],[127.2006,36.12026],[127.20187,36.12051],[127.20251,36.12014],[127.20176,36.11917],[127.20114,36.11678],[127.20009,36.11767],[127.19756,36.11596],[127.19615,36.11538],[127.19414,36.11544],[127.19195,36.1138],[127.19155,36.11263],[127.18814,36.11305],[127.18718,36.11179],[127.18659,36.11178],[127.18585,36.11106],[127.18533,36.1112],[127.18317,36.1098],[127.1821,36.1107],[127.18083,36.11068],[127.18039,36.11029],[127.18026,36.10921],[127.17802,36.10834],[127.17831,36.10761],[127.17695,36.10629],[127.17617,36.10321],[127.17421,36.10162],[127.17497,36.09864],[127.17459,36.09816],[127.1747,36.09678],[127.17543,36.09616],[127.17766,36.09519],[127.17868,36.09423],[127.17703,36.09094],[127.17598,36.09043],[127.1755,36.08955],[127.17412,36.08904],[127.17258,36.08743],[127.1716,36.08747],[127.17099,36.08708],[127.17057,36.08646],[127.17075,36.08462],[127.16874,36.08397],[127.16448,36.08544],[127.1611,36.08394],[127.15916,36.08397],[127.15833,36.08351],[127.15498,36.08493],[127.15371,36.08475],[127.15277,36.08558],[127.15215,36.08801],[127.15228,36.08853],[127.1512,36.09004],[127.15239,36.09055],[127.15349,36.09156],[127.15361,36.093],[127.15419,36.09384],[127.15412,36.09683],[127.15275,36.0996],[127.15205,36.1004],[127.15183,36.1017],[127.14913,36.1039],[127.14844,36.10508],[127.14889,36.10569],[127.14928,36.10833],[127.15079,36.11052],[127.15174,36.1111],[127.15188,36.11201],[127.15144,36.11377],[127.15105,36.11459],[127.15025,36.11513],[127.15072,36.11911],[127.14817,36.1208],[127.14691,36.12206],[127.14461,36.12564],[127.14314,36.12516],[127.14044,36.12589],[127.13713,36.12919],[127.13651,36.13032],[127.13648,36.13034]]]]}},{"type":"Feature","properties":{"zone":"zone6","name":"은진면","count":7},"geometry":{"type":"MultiPolygon","coordinates":[[[[127.11949,36.19749],[127.12084,36.19629],[127.12267,36.19595],[127.12355,36.19599],[127.12403,36.19681],[127.12642,36.19575],[127.12764,36.19486],[127.12803,36.1944],[127.12812,36.19335],[127.12759,36.19218],[127.1274,36.18953],[127.12793,36.18807],[127.13005,36.1863],[127.13174,36.18418],[127.13545,36.18253],[127.13639,36.18162],[127.1384,36.18067],[127.13975,36.17842],[127.14223,36.17657],[127.14145,36.17598],[127.14269,36.17449],[127.14232,36.17267],[127.14155,36.17124],[127.13973,36.16958],[127.13831,36.16553],[127.13617,36.16702],[127.13428,36.16971],[127.13419,36.17061],[127.13328,36.17102],[127.13256,36.17013],[127.13113,36.16921],[127.13231,36.16765],[127.13232,36.16671],[127.1329,36.16628],[127.13285,36.16439],[127.13365,36.16318],[127.13295,36.16127],[127.13363,36.15991],[127.13362,36.15815],[127.13428,36.15768],[127.13391,36.15603],[127.13409,36.15473],[127.13452,36.15427],[127.13405,36.15333],[127.13327,36.15304],[127.13321,36.15189],[127.13375,36.15129],[127.13533,36.15165],[127.13786,36.15077],[127.13945,36.15172],[127.14017,36.15105],[127.14103,36.15111],[127.14235,36.14968],[127.14242,36.14854],[127.14338,36.14731],[127.14491,36.14715],[127.14646,36.14606],[127.14578,36.14457],[127.143,36.14158],[127.1447,36.13947],[127.1444,36.1384],[127.1435,36.13774],[127.14182,36.13728],[127.14043,36.13585],[127.14119,36.13169],[127.13979,36.13021],[127.13648,36.13034],[127.13557,36.13135],[127.13426,36.13184],[127.13332,36.13282],[127.13406,36.13401],[127.13351,36.13499],[127.13365,36.13616],[127.13173,36.1383],[127.13196,36.1393],[127.13166,36.14005],[127.12903,36.14296],[127.12787,36.14374],[127.12764,36.14471],[127.12636,36.1454],[127.12651,36.14806],[127.12674,36.14801],[127.12272,36.14911],[127.12118,36.15066],[127.11492,36.15156],[127.11263,36.15085],[127.11053,36.15082],[127.11068,36.15059],[127.1092,36.15022],[127.10694,36.14864],[127.10661,36.14453],[127.10561,36.14463],[127.10336,36.14605],[127.10236,36.14363],[127.10177,36.14379],[127.10126,36.14306],[127.09911,36.14265],[127.09754,36.14082],[127.09614,36.14138],[127.09289,36.14154],[127.09175,36.14266],[127.09031,36.14277],[127.08987,36.14404],[127.09106,36.14539],[127.09149,36.14681],[127.08921,36.14616],[127.08747,36.14612],[127.08743,36.14677],[127.08839,36.1483],[127.0884,36.14885],[127.08742,36.1492],[127.0887,36.15121],[127.08813,36.15142],[127.08796,36.1532],[127.0833,36.1529],[127.08297,36.15601],[127.07991,36.15518],[127.07871,36.1555],[127.07807,36.15621],[127.07761,36.16035],[127.07595,36.16443],[127.07638,36.1665],[127.07616,36.16838],[127.07505,36.16835],[127.07498,36.17002],[127.07613,36.171],[127.0766,36.17213],[127.0764,36.17304],[127.07405,36.17605],[127.07434,36.17826],[127.07515,36.17849],[127.07655,36.17818],[127.07782,36.17928],[127.07813,36.17898],[127.07935,36.17927],[127.0795,36.17887],[127.08171,36.17928],[127.08141,36.17982],[127.08171,36.18157],[127.08501,36.18196],[127.08659,36.18185],[127.0888,36.18099],[127.09141,36.17932],[127.09357,36.17852],[127.09449,36.17852],[127.09518,36.17772],[127.09556,36.17621],[127.09666,36.17436],[127.10067,36.17171],[127.10269,36.17321],[127.10388,36.17453],[127.10636,36.17576],[127.10754,36.17596],[127.11004,36.17894],[127.11001,36.18051],[127.10925,36.18116],[127.1099,36.18209],[127.11026,36.18525],[127.11183,36.18688],[127.11276,36.18686],[127.11309,36.18617],[127.11598,36.18611],[127.11604,36.18573],[127.11577,36.18561],[127.11631,36.18402],[127.11771,36.18315],[127.1185,36.18317],[127.11943,36.18204],[127.12151,36.18315],[127.123,36.1809],[127.12455,36.18191],[127.12376,36.18254],[127.12435,36.18304],[127.12264,36.18439],[127.12357,36.18517],[127.12285,36.18572],[127.1232,36.18588],[127.11853,36.19257],[127.11804,36.19235],[127.11626,36.19487],[127.11674,36.19509],[127.11612,36.196],[127.11947,36.19748],[127.11949,36.19749]]],[[[127.07784,36.15642],[127.07802,36.15618],[127.07784,36.15642],[127.07784,36.15642]]]]}},{"type":"Feature","properties":{"zone":"zone6","name":"채운면","count":0},"geometry":{"type":"MultiPolygon","coordinates":[[[[127.05568,36.18361],[127.05733,36.18327],[127.0609,36.18164],[127.06134,36.18159],[127.06166,36.18199],[127.06221,36.18179],[127.06243,36.18102],[127.06474,36.18057],[127.06522,36.17971],[127.06593,36.17952],[127.066,36.17903],[127.06861,36.18055],[127.06885,36.18044],[127.06857,36.18022],[127.06866,36.17961],[127.06972,36.17934],[127.06982,36.17836],[127.0731,36.17832],[127.07315,36.17863],[127.07439,36.1782],[127.07405,36.17605],[127.0764,36.17304],[127.0766,36.17213],[127.07613,36.171],[127.07498,36.17002],[127.07505,36.16835],[127.07616,36.16838],[127.07638,36.1665],[127.07595,36.16443],[127.07761,36.16035],[127.07807,36.15621],[127.07871,36.1555],[127.07991,36.15518],[127.08297,36.15601],[127.0833,36.1529],[127.08796,36.1532],[127.08813,36.15142],[127.0887,36.15121],[127.08741,36.14911],[127.0884,36.14885],[127.08839,36.1483],[127.08743,36.14677],[127.08747,36.14612],[127.08848,36.14603],[127.08663,36.14553],[127.08468,36.14437],[127.08417,36.14305],[127.08417,36.14071],[127.08301,36.13895],[127.07885,36.13767],[127.07739,36.13799],[127.0763,36.13934],[127.0737,36.13957],[127.07197,36.13725],[127.06859,36.13775],[127.06879,36.13863],[127.0676,36.13881],[127.06821,36.1397],[127.06686,36.14039],[127.06644,36.14176],[127.06569,36.14252],[127.06535,36.14384],[127.06375,36.14386],[127.06363,36.14341],[127.0625,36.1436],[127.06227,36.14271],[127.0611,36.14291],[127.06098,36.14247],[127.05865,36.14287],[127.05881,36.14351],[127.05765,36.14371],[127.05782,36.14439],[127.05553,36.14501],[127.0557,36.14566],[127.05104,36.14644],[127.05089,36.14587],[127.04972,36.14607],[127.04952,36.14532],[127.04837,36.1455],[127.04814,36.14462],[127.04697,36.14482],[127.04685,36.14438],[127.0457,36.14457],[127.04547,36.14369],[127.04428,36.14389],[127.04484,36.14609],[127.04251,36.14648],[127.04216,36.14506],[127.04136,36.14421],[127.04089,36.14153],[127.0402,36.1419],[127.03977,36.14157],[127.03414,36.14796],[127.03403,36.14841],[127.03212,36.15016],[127.03016,36.15324],[127.02809,36.15737],[127.02593,36.16007],[127.02484,36.16231],[127.02303,36.16478],[127.02081,36.16626],[127.01865,36.16713],[127.01302,36.16818],[127.01747,36.17131],[127.01864,36.17179],[127.03415,36.17647],[127.04527,36.18094],[127.05116,36.18259],[127.05227,36.18341],[127.05328,36.18226],[127.05563,36.18354],[127.05568,36.18361]],[[127.07786,36.1564],[127.07802,36.15618],[127.07786,36.15639],[127.07786,36.1564]]]]}}]}